[{"OBJECT_NAME":"STARLINK-3756","OBJECT_ID":"2022-041BA","EPOCH":"2026-03-09T10:30:23.280480","MEAN_MOTION":15.08836789,"ECCENTRICITY":0.00011834,"INCLINATION":53.2166,"RA_OF_ASC_NODE":90.248,"ARG_OF_PERICENTER":91.1181,"MEAN_ANOMALY":268.9947,"EPHEMERIS_TYPE":0,"CLASSIFICATION_TYPE":"U","NORAD_CAT_ID":52309,"ELEMENT_SET_NO":999,"REV_AT_EPOCH":21582,"BSTAR":6.5064709e-5,"MEAN_MOTION_DOT":7.48e-6,"MEAN_MOTION_DDOT":0},{"OBJECT_NAME":"OBJECT G","OBJECT_ID":"2026-027G","EPOCH":"2026-03-09T21:53:37.288032","MEAN_MOTION":15.12145257,"ECCENTRICITY":0.00120269,"INCLINATION":97.4906,"RA_OF_ASC_NODE":197.8999,"ARG_OF_PERICENTER":227.3105,"MEAN_ANOMALY":132.7114,"EPHEMERIS_TYPE":0,"CLASSIFICATION_TYPE":"U","NORAD_CAT_ID":67752,"ELEMENT_SET_NO":999,"REV_AT_EPOCH":389,"BSTAR":0.00053594907,"MEAN_MOTION_DOT":9.195e-5,"MEAN_MOTION_DDOT":0}]
